0 SL-16 DEB
1 26075U 00006E   13283.17781249  .00000046  00000-0  79776-4 0  1501
2 26075 071.0657 254.1970 0188629 129.3884 326.2162 13.75261615686756
0 SL-16 DEB
1 26075U 00006E   13285.37141676  .00000022  00000-0  58166-4 0  1514
2 26075 071.0659 249.8977 0188599 126.2067 026.6601 13.75262134687051
0 SL-16 DEB
1 26075U 00006E   13287.39869192  .00000034  00000-0  69291-4 0  1523
2 26075 071.0664 245.9243 0188539 123.2813 343.6047 13.75262294687334
0 SL-16 DEB
1 26075U 00006E   13289.93454228  .00000059  00000-0  92019-4 0  1537
2 26075 071.0668 240.9545 0188459 119.6129 298.4933 13.75262526687685
0 SL-16 DEB
1 26075U 00006E   13292.19900990  .00000088  00000-0  11864-3 0  1542
2 26075 071.0668 236.5169 0188432 116.3219 349.7948 13.75262769687992
0 SL-16 DEB
1 26075U 00006E   13294.52762884  .00000068  00000-0  10033-3 0  1555
2 26075 071.0668 231.9537 0188412 112.9347 358.7108 13.75263474688311
